[{"OBJECT_NAME":"QIANFAN-35","OBJECT_ID":"2024-185S","EPOCH":"2026-03-09T22:26:33.581760","MEAN_MOTION":14.28128705,"ECCENTRICITY":0.00069627,"INCLINATION":88.9749,"RA_OF_ASC_NODE":66.6226,"ARG_OF_PERICENTER":20.1226,"MEAN_ANOMALY":340.0242,"EPHEMERIS_TYPE":0,"CLASSIFICATION_TYPE":"U","NORAD_CAT_ID":61568,"ELEMENT_SET_NO":999,"REV_AT_EPOCH":8262,"BSTAR":0.00043408229,"MEAN_MOTION_DOT":1.093e-5,"MEAN_MOTION_DDOT":0},{"OBJECT_NAME":"FENGYUN 1C DEB","OBJECT_ID":"1999-025AHP","EPOCH":"2026-03-09T11:18:46.826784","MEAN_MOTION":14.2605096,"ECCENTRICITY":0.00405021,"INCLINATION":99.0913,"RA_OF_ASC_NODE":67.4106,"ARG_OF_PERICENTER":315.0644,"MEAN_ANOMALY":197.3558,"EPHEMERIS_TYPE":0,"CLASSIFICATION_TYPE":"U","NORAD_CAT_ID":30501,"ELEMENT_SET_NO":999,"REV_AT_EPOCH":98155,"BSTAR":0.0017254345,"MEAN_MOTION_DOT":4.111e-5,"MEAN_MOTION_DDOT":0}]
